GLOBALSTAR M068         
1 32266U 07048D   24235.14215649 -.00000060  00000+0  24610-3 0  9998
2 32266  51.9881 133.8283 0000526 155.4043 352.0056 12.62796947779777
GLOBALSTAR M079         
1 37188U 10054A   24235.56350162 -.00000068  00000+0  19869-3 0  9991
2 37188  52.0065 328.8473 0000538  85.5076 287.6268 12.62262962638744
GLOBALSTAR M074         
1 37189U 10054B   24235.51064191 -.00000059  00000+0  24850-3 0  9997
2 37189  52.0042 328.3760 0000626 112.4926 260.6596 12.62271690639414
GLOBALSTAR M076         
1 37190U 10054C   24235.53742623 -.00000065  00000+0  21397-3 0  9994
2 37190  52.0051 328.4411 0000951  88.4278 284.6509 12.62255553639064
GLOBALSTAR M077         
1 37191U 10054D   24235.46470426 -.00000070  00000+0  18729-3 0  9997
2 37191  52.0067 285.4322 0000451 120.8487 342.7333 12.62262935639426
GLOBALSTAR M075         
1 37192U 10054E   24235.62964191 -.00000081  00000+0  12590-3 0  9995
2 37192  51.9972  10.5797 0000700  93.9974 279.4133 12.62263190638675
GLOBALSTAR M073         
1 37193U 10054F   24235.39222657 -.00000064  00000+0  22364-3 0  9995
2 37193  52.0055 284.8975 0000508 103.5683 269.9089 12.62268591640155
GLOBALSTAR M083         
1 37739U 11033A   24235.24684356 -.00000103  00000+0  52708-5 0  9992
2 37739  51.9842 234.4762 0000108  24.8110 349.0020 12.62263522609108
GLOBALSTAR M088         
1 37740U 11033B   24235.49236873 -.00000069  00000+0  19276-3 0  9990
2 37740  51.9726 139.4696 0000552  36.8980 133.7457 12.62266418604678
GLOBALSTAR M091         
1 37741U 11033C   24235.34793568 -.00000071  00000+0  18386-3 0  9998
2 37741  51.9995 102.9331 0000576  40.3472 131.8652 12.62266095605443
GLOBALSTAR M085         
1 37742U 11033D   24235.77454453 -.00000099  00000+0  25287-4 0  9992
2 37742  51.9872  52.9334 0000636  69.3162 303.8002 12.62264726606506
GLOBALSTAR M081         
1 37743U 11033E   24235.82093053 -.00000092  00000+0  65120-4 0  9997
2 37743  51.9964  55.3957 0000856  59.6766  44.0079 12.62268367606540
GLOBALSTAR M089         
1 37744U 11033F   24235.70265736 -.00000093  00000+0  60786-4 0  9998
2 37744  51.9952  10.0424 0001097  93.2898  11.1169 12.62267280607249
GLOBALSTAR M084         
1 38040U 11080A   24235.29964937 -.00000099  00000+0  27809-4 0  9998
2 38040  51.9981 238.3982 0000505 107.5113 265.7527 12.62266014584925
GLOBALSTAR M080         
1 38041U 11080B   24235.78304087 -.00000095  00000+0  50800-4 0  9990
2 38041  52.0035 238.4286 0000649  86.1102  84.9053 12.62264519585244
GLOBALSTAR M082         
1 38042U 11080C   24235.31639890 -.00000099  00000+0  25183-4 0  9993
2 38042  52.0055 195.2620 0000263 281.7109 227.8180 12.62265281585753
GLOBALSTAR M092         
1 38043U 11080D   24235.43853042 -.00000077  00000+0  15102-3 0  9999
2 38043  52.0080 285.2540 0000525 127.6356 337.3235 12.62265554584228
GLOBALSTAR M090         
1 38044U 11080E   24235.58520109 -.00000090  00000+0  76765-4 0  9999
2 38044  51.9867 188.6369 0000199   0.9695 170.4398 12.62266350585942
GLOBALSTAR M086         
1 38045U 11080F   24235.61132189 -.00000094  00000+0  55681-4 0  9999
2 38045  51.9879 189.0846 0001218  25.7908 145.0892 12.62265835585951
GLOBALSTAR M097         
1 39072U 13005A   24235.36308026 -.00000073  00000+0  17263-3 0  9996
2 39072  52.0046 104.0876 0000714  44.6033 315.4891 12.62269773533072
GLOBALSTAR M093         
1 39073U 13005B   24235.33607624 -.00000072  00000+0  17733-3 0  9991
2 39073  51.9809  97.9467 0000692  41.0456 319.0463 12.62263184533029
GLOBALSTAR M094         
1 39074U 13005C   24235.65296410 -.00000094  00000+0  54571-4 0  9990
2 39074  51.9981  11.0648 0000632  76.0639 284.0297 12.62267013534699
GLOBALSTAR M096         
1 39075U 13005D   24235.19110748 -.00000094  00000+0  53692-4 0  9992
2 39075  52.0076  60.7525 0000662  54.2193 305.8736 12.62269051533534
GLOBALSTAR M078         
1 39076U 13005E   24235.48136493  .00000029  00000+0  74175-3 0  9995
2 39076  51.9866 144.7854 0000432 233.8633 126.2193 12.62275664532197
GLOBALSTAR M095         
1 39077U 13005F   24235.11182303 -.00000059  00000+0  24720-3 0  9992
2 39077  51.9792 143.2562 0000437 332.5765  27.5078 12.62263510532006
GLOBALSTAR M087         
1 52888U 22064A   24235.53720263 -.00000058  00000+0  13370-3 0  9999
2 52888  51.9775 337.0212 0009679 169.4486 190.6619 13.37582529106402
